SMOS                    
1 36036U 09059A   26197.51685470  .00000112  00000+0  49666-4 0  9990
2 36036  98.4429  24.4220 0001164  97.4594 262.6727 14.39736468877678
SRMSAT                  
1 37841U 11058D   26197.50190566  .00000328  00000+0  34086-4 0  9992
2 37841  19.9708 242.0370 0011714 165.5426 335.9764 14.11581255761969
SPOT 6                  
1 38755U 12047A   26197.83402060 -.00000024  00000+0  46094-5 0  9994
2 38755  98.2109 264.7936 0001116  86.9603 273.1724 14.58538789737378
SPOT 7                  
1 40053U 14034A   26197.83707400  .00000155  00000+0  40870-4 0  9991
2 40053  98.0615 259.5625 0001587  94.2421 265.8961 14.60981533641468
STRIX-1                 
1 53815U 22113A   26197.87022892  .00014928  00000+0  36309-3 0  9991
2 53815  97.4474 260.4478 0005547 127.6691 232.5059 15.41051033212018
STRIX-3                 
1 59224U 24047A   26197.87577088  .00004977  00000+0  23520-3 0  9995
2 59224  97.6638 174.0011 0011791 328.6204  31.4325 15.19826911129251
STRIX-4                 
1 60352U 24137A   26197.86539352  .00010512  00000+0  32624-3 0  9997
2 60352  43.0151 116.0514 0016303 143.2096 216.9880 15.33348802108570
STRIX-2                 
1 62406U 24248A   26197.84540892  .00002452  00000+0  15805-3 0  9997
2 62406  97.6300 153.3215 0013817 229.4806 130.5220 15.09199511 86060
STRIX-5                 
1 65971U 25229A   26197.51158606  .00001745  00000+0  13399-3 0  9999
2 65971  41.9275 124.7654 0037987 245.8620 113.8231 15.04594263 41393
STRIX-6                 
1 68291U 26056A   26197.43481590  .00000891  00000+0  91207-4 0  9994
2 68291  50.2825 211.5207 0016624 355.9365   4.1447 15.00330126 17664
